GLOBALSTAR M094         
1 39074U 13005C   25064.76239963 -.00000091  00000+0  72648-4 0  9995
2 39074  51.9952 137.0152 0000730  92.3816 267.7134 12.62268744559319
GLOBALSTAR M096         
1 39075U 13005D   25064.53810461 -.00000079  00000+0  13996-3 0  9995
2 39075  52.0064 186.1312 0000842  87.6966 272.3997 12.62268817558203
GLOBALSTAR M078         
1 39076U 13005E   25064.82775317 -.00000087  00000+0  95319-4 0  9997
2 39076  51.9858 269.8981 0000679   8.8720 351.2158 12.62259888556869
GLOBALSTAR M095         
1 39077U 13005F   25064.85464609 -.00000081  00000+0  12814-3 0  9992
2 39077  51.9782 267.0675 0000949  51.0707 309.0244 12.62267491556722
GLOBALSTAR M087         
1 52888U 22064A   25064.88532614 -.00000104  00000+0  34672-6 0  9992
2 52888  51.9799  48.3748 0000375  61.0632 299.0272 12.62269115131999
